start=new Date('2021-09-12T00:00:00.000Z').valueOf();
sats=[{"REV_AT_EPOCH":"3340","OBJECT_NAME":"STARLINK-1953","ARG_OF_PERICENTER":"281.8328","MEAN_ANOMALY":"78.2194","MEAN_MOTION_DDOT":"0.0000000000000","GP_ID":"184508264","TIME_SYSTEM":"UTC","PERIOD":"95.592","CLASSIFICATION_TYPE":"U","ELEMENT_SET_NO":"999","CENTER_NAME":"EARTH","APOAPSIS":"550.106","SITE":"AFETR","NORAD_CAT_ID":"47554","EPOCH":"2021-09-11T06:25:53.382144","MEAN_MOTION":"15.06395851","REF_FRAME":"TEME","LAUNCH_DATE":"2021-02-04","OBJECT_ID":"2021-009G","MEAN_MOTION_DOT":"-0.00000141","FILE":"3113181","ECCENTRICITY":"0.00041580","TLE_LINE1":"1 47554U 21009G   21254.26797896 -.00000141  00000-0  95001-5 0  9992","SEMIMAJOR_AXIS":"6925.361","RA_OF_ASC_NODE":"195.7450","RCS_SIZE":"LARGE","COUNTRY_CODE":"US","DECAY_DATE":null,"BSTAR":"0.00000950010000","INCLINATION":"53.0561","EPHEMERIS_TYPE":"0","MEAN_ELEMENT_THEORY":"SGP4","OBJECT_TYPE":"PAYLOAD","TLE_LINE2":"2 47554  53.0561 195.7450 0004158 281.8328  78.2194 15.06395851 33402","PERIAPSIS":"544.347"},{"PERIAPSIS":"545.926","TLE_LINE2":"2 47555  53.0556 184.0938 0001825  49.4601 310.6546 15.06407593 33602","MEAN_ELEMENT_THEORY":"SGP4","OBJECT_TYPE":"PAYLOAD","EPHEMERIS_TYPE":"0","INCLINATION":"53.0556","BSTAR":"0.00005073400000","DECAY_DATE":null,"COUNTRY_CODE":"US","RCS_SIZE":"LARGE","RA_OF_ASC_NODE":"184.0938","TLE_LINE1":"1 47555U 21009H   21254.64117921  .00000474  00000-0  50734-4 0  9991","SEMIMAJOR_AXIS":"6925.325","ECCENTRICITY":"0.00018250","FILE":"3113379","MEAN_MOTION_DOT":"0.00000474","OBJECT_ID":"2021-009H","LAUNCH_DATE":"2021-02-04","REF_FRAME":"TEME","MEAN_MOTION":"15.06407593","EPOCH":"2021-09-11T15:23:17.883744","NORAD_CAT_ID":"47555","SITE":"AFETR","APOAPSIS":"548.454","CENTER_NAME":"EARTH","ELEMENT_SET_NO":"999","CLASSIFICATION_TYPE":"U","PERIOD":"95.592","GP_ID":"184534121","TIME_SYSTEM":"UTC","MEAN_MOTION_DDOT":"0.0000000000000","MEAN_ANOMALY":"310.6546","ARG_OF_PERICENTER":"49.4601","OBJECT_NAME":"STARLINK-1954","REV_AT_EPOCH":"3360"},{"INCLINATION":"53.0546","EPHEMERIS_TYPE":"0","BSTAR":"0.00000993300000","COUNTRY_CODE":"US","DECAY_DATE":null,"RCS_SIZE":"LARGE","RA_OF_ASC_NODE":"205.6993","PERIAPSIS":"546.051","TLE_LINE2":"2 47556  53.0546 205.6993 0001637  31.1310 328.9775 15.06409423 33261","MEAN_ELEMENT_THEORY":"SGP4","OBJECT_TYPE":"PAYLOAD","MEAN_MOTION_DOT":"-0.00000134","LAUNCH_DATE":"2021-02-04","OBJECT_ID":"2021-009J","TLE_LINE1":"1 47556U 21009J   21254.27811926 -.00000134  00000-0  99330-5 0  9997","ECCENTRICITY":"0.00016370","SEMIMAJOR_AXIS":"6925.320","FILE":"3113181","CENTER_NAME":"EARTH","REF_FRAME":"TEME","MEAN_MOTION":"15.06409423","EPOCH":"2021-09-11T06:40:29.504064","NORAD_CAT_ID":"47556","APOAPSIS":"548.318","SITE":"AFETR","MEAN_MOTION_DDOT":"0.0000000000000","GP_ID":"184506765","TIME_SYSTEM":"UTC","MEAN_ANOMALY":"328.9775","ARG_OF_PERICENTER":"31.1310","OBJECT_NAME":"STARLINK-1955","REV_AT_EPOCH":"3326","ELEMENT_SET_NO":"999","CLASSIFICATION_TYPE":"U","PERIOD":"95.592"},{"EPOCH":"2021-09-11T08:58:30.198432","MEAN_MOTION":"15.06399899","NORAD_CAT_ID":"47557","APOAPSIS":"548.312","SITE":"AFETR","REF_FRAME":"TEME","CENTER_NAME":"EARTH","CLASSIFICATION_TYPE":"U","PERIOD":"95.592","ELEMENT_SET_NO":"999","ARG_OF_PERICENTER":"66.4303","OBJECT_NAME":"STARLINK-1956","REV_AT_EPOCH":"3328","GP_ID":"184507015","MEAN_MOTION_DDOT":"0.0000000000000","TIME_SYSTEM":"UTC","MEAN_ANOMALY":"293.6852","OBJECT_TYPE":"PAYLOAD","MEAN_ELEMENT_THEORY":"SGP4","TLE_LINE2":"2 47557  53.0546 205.2884 0001585  66.4303 293.6852 15.06399899 33283","PERIAPSIS":"546.116","RCS_SIZE":"LARGE","RA_OF_ASC_NODE":"205.2884","EPHEMERIS_TYPE":"0","INCLINATION":"53.0546","BSTAR":"-0.00000157120000","DECAY_DATE":null,"COUNTRY_CODE":"US","TLE_LINE1":"1 47557U 21009K   21254.37396063 -.00000305  00000-0 -15712-5 0  9992","SEMIMAJOR_AXIS":"6925.349","ECCENTRICITY":"0.00015850","FILE":"3113181","MEAN_MOTION_DOT":"-0.00000305","OBJECT_ID":"2021-009K","LAUNCH_DATE":"2021-02-04"},{"OBJECT_NAME":"STARLINK-1957","ARG_OF_PERICENTER":"51.5735","REV_AT_EPOCH":"3375","MEAN_ANOMALY":"308.5440","GP_ID":"184535373","MEAN_MOTION_DDOT":"0.0000000000000","TIME_SYSTEM":"UTC","PERIOD":"95.592","CLASSIFICATION_TYPE":"U","ELEMENT_SET_NO":"999","CENTER_NAME":"EARTH","NORAD_CAT_ID":"47558","MEAN_MOTION":"15.06394978","EPOCH":"2021-09-11T18:03:52.924032","APOAPSIS":"548.660","SITE":"AFETR","REF_FRAME":"TEME","MEAN_MOTION_DOT":"-0.00000042","OBJECT_ID":"2021-009L","LAUNCH_DATE":"2021-02-04","TLE_LINE1":"1 47558U 21009L   21254.75269588 -.00000042  00000-0  16072-4 0  9992","ECCENTRICITY":"0.00020660","SEMIMAJOR_AXIS":"6925.364","FILE":"3113379","RCS_SIZE":"LARGE","RA_OF_ASC_NODE":"173.5741","BSTAR":"0.00001607200000","INCLINATION":"53.0541","EPHEMERIS_TYPE":"0","DECAY_DATE":null,"COUNTRY_CODE":"US","MEAN_ELEMENT_THEORY":"SGP4","OBJECT_TYPE":"PAYLOAD","PERIAPSIS":"545.798","TLE_LINE2":"2 47558  53.0541 173.5741 0002066  51.5735 308.5440 15.06394978 33751"},{"OBJECT_ID":"2021-009M","LAUNCH_DATE":"2021-02-04","MEAN_MOTION_DOT":"-0.00000444","FILE":"3113379","TLE_LINE1":"1 47559U 21009M   21254.78310658 -.00000444  00000-0 -10873-4 0  9991","SEMIMAJOR_AXIS":"6925.381","ECCENTRICITY":"0.00021110","COUNTRY_CODE":"US","DECAY_DATE":null,"EPHEMERIS_TYPE":"0","INCLINATION":"53.0569","BSTAR":"-0.00001087300000","RA_OF_ASC_NODE":"163.4445","RCS_SIZE":"LARGE","PERIAPSIS":"545.784","TLE_LINE2":"2 47559  53.0569 163.4445 0002111  63.2667 296.8538 15.06389344 33901","OBJECT_TYPE":"PAYLOAD","MEAN_ELEMENT_THEORY":"SGP4","TIME_SYSTEM":"UTC","GP_ID":"184534621","MEAN_MOTION_DDOT":"0.0000000000000","MEAN_ANOMALY":"296.8538","REV_AT_EPOCH":"3390","ARG_OF_PERICENTER":"63.2667","OBJECT_NAME":"STARLINK-1958","ELEMENT_SET_NO":"999","CLASSIFICATION_TYPE":"U","PERIOD":"95.593","CENTER_NAME":"EARTH","REF_FRAME":"TEME","SITE":"AFETR","APOAPSIS":"548.708","EPOCH":"2021-09-11T18:47:40.408512","MEAN_MOTION":"15.06389344","NORAD_CAT_ID":"47559"},{"MEAN_MOTION":"15.06400062","EPOCH":"2021-09-11T04:17:11.154912","NORAD_CAT_ID":"47560","SITE":"AFETR","APOAPSIS":"548.410","REF_FRAME":"TEME","CENTER_NAME":"EARTH","CLASSIFICATION_TYPE":"U","PERIOD":"95.592","ELEMENT_SET_NO":"999","ARG_OF_PERICENTER":"67.2388","OBJECT_NAME":"STARLINK-1959","REV_AT_EPOCH":"3381","GP_ID":"184507266","MEAN_MOTION_DDOT":"0.0000000000000","TIME_SYSTEM":"UTC","MEAN_ANOMALY":"292.8783","OBJECT_TYPE":"PAYLOAD","MEAN_ELEMENT_THEORY":"SGP4","PERIAPSIS":"546.017","TLE_LINE2":"2 47560  53.0566 166.1647 0001728  67.2388 292.8783 15.06400062 33810","RCS_SIZE":"LARGE","RA_OF_ASC_NODE":"166.1647","INCLINATION":"53.0566","EPHEMERIS_TYPE":"0","BSTAR":"0.00001124800000","COUNTRY_CODE":"US","DECAY_DATE":null,"ECCENTRICITY":"0.00017280","TLE_LINE1":"1 47560U 21009N   21254.17860133 -.00000114  00000-0  11248-4 0  9994","SEMIMAJOR_AXIS":"6925.348","FILE":"3113181","MEAN_MOTION_DOT":"-0.00000114","LAUNCH_DATE":"2021-02-04","OBJECT_ID":"2021-009N"},{"FILE":"3113181","SEMIMAJOR_AXIS":"6925.329","TLE_LINE1":"1 47561U 21009P   21254.23203251  .00000769  00000-0  70560-4 0  9991","ECCENTRICITY":"0.00045300","LAUNCH_DATE":"2021-02-04","OBJECT_ID":"2021-009P","MEAN_MOTION_DOT":"0.00000769","OBJECT_TYPE":"PAYLOAD","MEAN_ELEMENT_THEORY":"SGP4","PERIAPSIS":"544.057","TLE_LINE2":"2 47561  53.0604 185.9011 0004530 221.4757 138.5888 15.06406478 33545","RA_OF_ASC_NODE":"185.9011","RCS_SIZE":"LARGE","COUNTRY_CODE":"US","DECAY_DATE":null,"INCLINATION":"53.0604","EPHEMERIS_TYPE":"0","BSTAR":"0.00007056000000","CLASSIFICATION_TYPE":"U","PERIOD":"95.592","ELEMENT_SET_NO":"999","REV_AT_EPOCH":"3354","ARG_OF_PERICENTER":"221.4757","OBJECT_NAME":"STARLINK-1960","GP_ID":"184507516","MEAN_MOTION_DDOT":"0.0000000000000","TIME_SYSTEM":"UTC","MEAN_ANOMALY":"138.5888","APOAPSIS":"550.331","SITE":"AFETR","EPOCH":"2021-09-11T05:34:07.608864","MEAN_MOTION":"15.06406478","NORAD_CAT_ID":"47561","REF_FRAME":"TEME","CENTER_NAME":"EARTH"},{"ARG_OF_PERICENTER":"45.4334","OBJECT_NAME":"STARLINK-1961","REV_AT_EPOCH":"3355","TIME_SYSTEM":"UTC","GP_ID":"184508265","MEAN_MOTION_DDOT":"0.0000000000000","MEAN_ANOMALY":"314.6834","CLASSIFICATION_TYPE":"U","PERIOD":"95.592","ELEMENT_SET_NO":"999","CENTER_NAME":"EARTH","MEAN_MOTION":"15.06404334","EPOCH":"2021-09-11T07:30:55.192320","NORAD_CAT_ID":"47562","APOAPSIS":"548.718","SITE":"AFETR","REF_FRAME":"TEME","MEAN_MOTION_DOT":"0.00000593","LAUNCH_DATE":"2021-02-04","OBJECT_ID":"2021-009Q","SEMIMAJOR_AXIS":"6925.335","TLE_LINE1":"1 47562U 21009Q   21254.31313880  .00000593  00000-0  58709-4 0  9997","ECCENTRICITY":"0.00021910","FILE":"3113181","RCS_SIZE":"LARGE","RA_OF_ASC_NODE":"185.5520","INCLINATION":"53.0554","EPHEMERIS_TYPE":"0","BSTAR":"0.00005870900000","DECAY_DATE":null,"COUNTRY_CODE":"US","MEAN_ELEMENT_THEORY":"SGP4","OBJECT_TYPE":"PAYLOAD","PERIAPSIS":"545.683","TLE_LINE2":"2 47562  53.0554 185.5520 0002191  45.4334 314.6834 15.06404334 33555"},{"MEAN_MOTION_DOT":"0.00002146","OBJECT_ID":"2021-009R","LAUNCH_DATE":"2021-02-04","TLE_LINE1":"1 47563U 21009R   21254.20255832  .00002146  00000-0  16290-3 0  9992","ECCENTRICITY":"0.00019010","SEMIMAJOR_AXIS":"6925.337","FILE":"3113181","RCS_SIZE":"LARGE","RA_OF_ASC_NODE":"186.0448","INCLINATION":"53.0558","EPHEMERIS_TYPE":"0","BSTAR":"0.00016290000000","COUNTRY_CODE":"US","DECAY_DATE":null,"MEAN_ELEMENT_THEORY":"SGP4","OBJECT_TYPE":"PAYLOAD","PERIAPSIS":"545.885","TLE_LINE2":"2 47563  53.0558 186.0448 0001901  64.7745 295.3441 15.06403881 33536","ARG_OF_PERICENTER":"64.7745","OBJECT_NAME":"STARLINK-1962","REV_AT_EPOCH":"3353","MEAN_MOTION_DDOT":"0.0000000000000","GP_ID":"184508513","TIME_SYSTEM":"UTC","MEAN_ANOMALY":"295.3441","CLASSIFICATION_TYPE":"U","PERIOD":"95.592","ELEMENT_SET_NO":"999","CENTER_NAME":"EARTH","EPOCH":"2021-09-11T04:51:41.038848","MEAN_MOTION":"15.06403881","NORAD_CAT_ID":"47563","APOAPSIS":"548.518","SITE":"AFETR","REF_FRAME":"TEME"}];
